GLOBALSTAR M035 [-]     
1 25851U 99037A   24091.42836877 -.00000088  00000+0 -91694-3 0  9999
2 25851  51.9978 322.3521 0013502 347.9555 183.1965 11.04529465 47336
GLOBALSTAR M032 [-]     
1 25852U 99037B   24091.55388353 -.00000050  00000+0  54842-3 0  9997
2 25852  51.9936 177.8094 0010277 141.4071 218.7465 11.19050815 85230
GLOBALSTAR M051 [-]     
1 25853U 99037C   24091.50158447 -.00000067  00000+0  13096-3 0  9996
2 25853  51.9828  28.8038 0001572 127.6833 232.4120 11.42194794 81805
GLOBALSTAR M030 [-]     
1 25854U 99037D   24091.63011519 -.00000002  00000+0  15514-2 0  9994
2 25854  51.9862 222.7431 0003161 343.9834  16.0883 11.55087799 98907
GLOBALSTAR M048 [-]     
1 25872U 99041A   24091.32747613 -.00000053  00000+0  45881-3 0  9993
2 25872  51.9378 307.1394 0013922 135.4616  36.3200 11.33844609 74744
GLOBALSTAR M026 [-]     
1 25873U 99041B   24091.47204444 -.00000026  00000+0  14065-2 0  9999
2 25873  51.9994  84.8698 0001174 230.3476 300.7647 11.06836227 99466
GLOBALSTAR M043 [-]     
1 25874U 99041C   24091.55038104 -.00000035  00000+0  97186-3 0  9993
2 25874  51.9432  36.6059 0012642 279.4456 251.9392 11.25676682 73020
GLOBALSTAR M028 [-]     
1 25875U 99041D   24091.36800243 -.00000077  00000+0  15269-3 0  9992
2 25875  51.9620  73.4359 0063310 189.5664 170.3994 12.50552957134771
